[{"OBJECT_NAME":"GAOFEN-14 01","OBJECT_ID":"2020-092A","EPOCH":"2026-03-09T23:18:15.156000","MEAN_MOTION":15.25725011,"ECCENTRICITY":0.0008015,"INCLINATION":97.4817,"RA_OF_ASC_NODE":139.2507,"ARG_OF_PERICENTER":138.8844,"MEAN_ANOMALY":221.2999,"EPHEMERIS_TYPE":0,"CLASSIFICATION_TYPE":"U","NORAD_CAT_ID":47231,"ELEMENT_SET_NO":999,"REV_AT_EPOCH":29270,"BSTAR":0.00022250672,"MEAN_MOTION_DOT":5.605e-5,"MEAN_MOTION_DDOT":0},{"OBJECT_NAME":"STARLINK-30216","OBJECT_ID":"2023-105X","EPOCH":"2026-03-09T22:00:01.999584","MEAN_MOTION":15.25875769,"ECCENTRICITY":0.00015455,"INCLINATION":43.0008,"RA_OF_ASC_NODE":258.0349,"ARG_OF_PERICENTER":279.3916,"MEAN_ANOMALY":54.6105,"EPHEMERIS_TYPE":0,"CLASSIFICATION_TYPE":"U","NORAD_CAT_ID":57451,"ELEMENT_SET_NO":999,"REV_AT_EPOCH":563,"BSTAR":0.0020725314,"MEAN_MOTION_DOT":0.00054301,"MEAN_MOTION_DDOT":0}]
